EPOCH,NORAD_CAT_ID,MEAN_MOTION,ECCENTRICITY,INCLINATION,RA_OF_ASC_NODE,ARG_OF_PERICENTER,MEAN_ANOMALY,MEAN_MOTION_DOT,BSTAR,TLE_LINE1,TLE_LINE2
2022-11-22 06:30:56.934720,50803,15.08849993,0.00025540,53.2170,171.4777,34.6322,325.4837,0.00000205,0.00003098400000,1 50803U 22001A   22326.27149230  .00000205  00000-0  30984-4 0  9999,2 50803  53.2170 171.4777 0002554  34.6322 325.4837 15.08849993 48736
2022-11-22 17:38:39.277248,50803,15.08839015,0.00025720,53.2170,169.3962,35.7891,324.3273,0.00000866,0.00007253100000,1 50803U 22001A   22326.73517682  .00000866  00000-0  72531-4 0  9997,2 50803  53.2170 169.3962 0002572  35.7891 324.3273 15.08839015 50077
2022-11-22 19:14:02.549760,50803,15.08836916,0.00025750,53.2172,169.0988,35.5547,324.5616,0.00000501,0.00004960100000,1 50803U 22001A   22326.80141840  .00000501  00000-0  49601-4 0  9992,2 50803  53.2172 169.0988 0002575  35.5547 324.5616 15.08836916 48812
2022-11-23 06:21:44.864640,50803,15.08834493,0.00026060,53.2172,167.0175,36.5703,323.5467,-0.00000099,0.00001189000000,1 50803U 22001A   22327.26510260 -.00000099  00000-0  11890-4 0  9991,2 50803  53.2172 167.0175 0002606  36.5703 323.5467 15.08834493 50159
2022-11-23 06:21:44.864640,50803,15.08834493,0.00026060,53.2172,167.0175,36.5703,323.5467,-0.00000099,0.00001189000000,1 50803U 22001A   22327.26510260 -.00000099  00000-0  11890-4 0  9991,2 50803  53.2172 167.0175 0002606  36.5703 323.5467 15.08834493 48886
2022-11-23 19:04:49.714176,50803,15.08840157,0.00025170,53.2176,164.6383,38.6115,321.5057,-0.00000436,-0.00000929910000,1 50803U 22001A   22327.79501984 -.00000436  00000-0 -92991-5 0  9990,2 50803  53.2176 164.6383 0002517  38.6115 321.5057 15.08840157 48961
2022-11-24 06:12:31.551264,50803,15.08841899,0.00025570,53.2175,162.5569,38.3717,321.7456,-0.00000221,0.00000426700000,1 50803U 22001A   22328.25869851 -.00000221  00000-0  42670-5 0  9992,2 50803  53.2175 162.5569 0002557  38.3717 321.7456 15.08841899 49030
2022-11-24 06:12:31.551264,50803,15.08841899,0.00025570,53.2175,162.5569,38.3717,321.7456,-0.00000221,0.00000426700000,1 50803U 22001A   22328.25869851 -.00000221  00000-0  42670-5 0  9992,2 50803  53.2175 162.5569 0002557  38.3717 321.7456 15.08841899 50302
2022-11-24 18:55:36.593472,50803,15.08838158,0.00025930,53.2173,160.1783,39.2559,320.8621,0.00001121,0.00008853400000,1 50803U 22001A   22328.78861798  .00001121  00000-0  88534-4 0  9999,2 50803  53.2173 160.1783 0002593  39.2559 320.8621 15.08838158 49111
2022-11-25 12:24:50.904576,50803,15.08842390,0.00026560,53.2173,156.9072,40.8789,319.2402,0.00001287,0.00009893300000,1 50803U 22001A   22329.51725584  .00001287  00000-0  98933-4 0  9990,2 50803  53.2173 156.9072 0002656  40.8789 319.2402 15.08842390 49222
2022-11-25 18:46:23.236032,50803,15.08845112,0.00026650,53.2173,155.7179,41.4580,318.6614,0.00001406,0.00010645000000,1 50803U 22001A   22329.78221338  .00001406  00000-0  10645-3 0  9993,2 50803  53.2173 155.7179 0002665  41.4580 318.6614 15.08845112 49260
2022-11-25 18:46:23.236032,50803,15.08845112,0.00026650,53.2173,155.7179,41.4580,318.6614,0.00001406,0.00010645000000,1 50803U 22001A   22329.78221338  .00001406  00000-0  10645-3 0  9993,2 50803  53.2173 155.7179 0002665  41.4580 318.6614 15.08845112 50532
2022-11-26 12:15:38.033568,50803,15.08840370,0.00028750,53.2172,152.4470,45.8882,314.2346,0.00000245,0.00003350100000,1 50803U 22001A   22330.51085687  .00000245  00000-0  33501-4 0  9998,2 50803  53.2172 152.4470 0002875  45.8882 314.2346 15.08840370 50642
2022-11-26 12:15:38.033568,50803,15.08840370,0.00028750,53.2172,152.4470,45.8882,314.2346,0.00000245,0.00003350100000,1 50803U 22001A   22330.51085687  .00000245  00000-0  33501-4 0  9998,2 50803  53.2172 152.4470 0002875  45.8882 314.2346 15.08840370 49370
2022-11-26 18:37:10.777152,50803,15.08837565,0.00027120,53.2173,151.2577,43.2961,316.8244,-0.00000326,-0.00000233750000,1 50803U 22001A   22330.77581918 -.00000326  00000-0 -23375-5 0  9995,2 50803  53.2173 151.2577 0002712  43.2961 316.8244 15.08837565 49418
2022-11-27 12:06:25.210944,50803,15.08838904,0.00027190,53.2180,147.9871,43.0806,317.0399,-0.00000545,-0.00001614300000,1 50803U 22001A   22331.50445846 -.00000545  00000-0 -16143-4 0  9993,2 50803  53.2180 147.9871 0002719  43.0806 317.0399 15.08838904 49522
2022-11-27 18:27:57.603744,50803,15.08840611,0.00027400,53.2176,146.7975,43.7909,316.3300,-0.00000222,0.00000415160000,1 50803U 22001A   22331.76941671 -.00000222  00000-0  41516-5 0  9992,2 50803  53.2176 146.7975 0002740  43.7909 316.3300 15.08840611 50832
2022-11-27 18:27:57.603744,50803,15.08840611,0.00027400,53.2176,146.7975,43.7909,316.3300,-0.00000222,0.00000415160000,1 50803U 22001A   22331.76941671 -.00000222  00000-0  41516-5 0  9992,2 50803  53.2176 146.7975 0002740  43.7909 316.3300 15.08840611 49560
2022-11-28 18:18:44.405280,50803,15.08839531,0.00026940,53.2176,142.3362,46.7586,313.3630,0.00001925,0.00013902000000,1 50803U 22001A   22332.76301395  .00001925  00000-0  13902-3 0  9992,2 50803  53.2176 142.3362 0002694  46.7586 313.3630 15.08839531 49713
2022-11-29 10:12:36.861696,50803,15.08831203,0.00027330,53.2170,139.3625,44.9976,315.1237,-0.00000158,0.00000819500000,1 50803U 22001A   22333.42542664 -.00000158  00000-0  81950-5 0  9990,2 50803  53.2170 139.3625 0002733  44.9976 315.1237 15.08831203 51086
2022-11-29 11:48:00.097920,50803,15.08829888,0.00026700,53.2172,139.0657,44.9692,315.1516,-0.00000265,0.00000149040000,1 50803U 22001A   22333.49166780 -.00000265  00000-0  14904-5 0  9992,2 50803  53.2172 139.0657 0002670  44.9692 315.1516 15.08829888 49820
2022-11-29 18:09:32.518368,50803,15.08833332,0.00027110,53.2173,137.8764,44.2369,315.8840,0.00000098,0.00002431900000,1 50803U 22001A   22333.75662637  .00000098  00000-0  24319-4 0  9996,2 50803  53.2173 137.8764 0002711  44.2369 315.8840 15.08833332 49866
2022-11-30 10:03:23.792832,50803,15.08837949,0.00027670,53.2169,134.9023,47.8477,312.2750,0.00000288,0.00003624100000,1 50803U 22001A   22334.41902538  .00000288  00000-0  36241-4 0  9995,2 50803  53.2169 134.9023 0002767  47.8477 312.2750 15.08837949 51230
2022-11-30 11:38:46.953888,50803,15.08839086,0.00027770,53.2175,134.6051,46.2818,313.8404,0.00000058,0.00002179100000,1 50803U 22001A   22334.48526567  .00000058  00000-0  21791-4 0  9995,2 50803  53.2175 134.6051 0002777  46.2818 313.8404 15.08839086 49973
2022-11-30 19:35:42.336672,50803,15.08844500,0.00027680,53.2171,133.1183,45.7196,314.4023,0.00000130,0.00002630000000,1 50803U 22001A   22334.81646223  .00000130  00000-0  26300-4 0  9996,2 50803  53.2171 133.1183 0002768  45.7196 314.4023 15.08844500 50021
2022-12-01 09:54:10.793952,50803,15.08839589,0.00028020,53.2185,130.4427,50.0489,310.0749,0.00001971,0.00014195000000,1 50803U 22001A   22335.41262493  .00001971  00000-0  14195-3 0  9998,2 50803  53.2185 130.4427 0002802  50.0489 310.0749 15.08839589 50118
2022-12-01 17:51:06.406560,50803,15.08841534,0.00028230,53.2186,128.9559,50.5658,309.5584,0.00002007,0.00014418000000,1 50803U 22001A   22335.74382415  .00002007  00000-0  14418-3 0  9990,2 50803  53.2186 128.9559 0002823  50.5658 309.5584 15.08841534 51432
2022-12-01 19:26:30.473952,50803,15.08830604,0.00028110,53.2179,128.6578,47.8033,312.3197,0.00000402,0.00004342600000,1 50803U 22001A   22335.81007493  .00000402  00000-0  43426-4 0  9997,2 50803  53.2179 128.6578 0002811  47.8033 312.3197 15.08830604 51444
2022-12-01 19:26:30.473952,50803,15.08830604,0.00028110,53.2179,128.6578,47.8033,312.3197,0.00000402,0.00004342600000,1 50803U 22001A   22335.81007493  .00000402  00000-0  43426-4 0  9997,2 50803  53.2179 128.6578 0002811  47.8033 312.3197 15.08830604 50173
2022-12-02 11:20:21.387264,50803,15.08841084,0.00028030,53.2179,125.6840,48.1911,311.9320,0.00000636,0.00005806700000,1 50803U 22001A   22336.47246976  .00000636  00000-0  58067-4 0  9997,2 50803  53.2179 125.6840 0002803  48.1911 311.9320 15.08841084 50270
2022-12-02 11:20:21.387264,50803,15.08841084,0.00028030,53.2179,125.6840,48.1911,311.9320,0.00000636,0.00005806700000,1 50803U 22001A   22336.47246976  .00000636  00000-0  58067-4 0  9997,2 50803  53.2179 125.6840 0002803  48.1911 311.9320 15.08841084 51541
2022-12-02 19:17:16.919520,50803,15.08842997,0.00028210,53.2178,124.1970,48.4130,311.7104,0.00000783,0.00006730500000,1 50803U 22001A   22336.80366805  .00000783  00000-0  67305-4 0  9996,2 50803  53.2178 124.1970 0002821  48.4130 311.7104 15.08842997 50321
2022-12-03 03:14:12.281568,50803,15.08847210,0.00027990,53.2180,122.7105,48.8819,311.2415,0.00000975,0.00007934300000,1 50803U 22001A   22337.13486437  .00000975  00000-0  79343-4 0  9995,2 50803  53.2180 122.7105 0002799  48.8819 311.2415 15.08847210 50378
2022-12-03 15:57:18.057312,50803,15.08836043,0.00027730,53.2184,120.3316,50.2346,309.8890,0.00000572,0.00005407300000,1 50803U 22001A   22337.66479233  .00000572  00000-0  54073-4 0  9995,2 50803  53.2184 120.3316 0002773  50.2346 309.8890 15.08836043 51726
2022-12-03 19:08:04.453728,50803,15.08833572,0.00027880,53.2185,119.7374,50.1078,310.0159,0.00000991,0.00008037500000,1 50803U 22001A   22337.79727377  .00000991  00000-0  80375-4 0  9993,2 50803  53.2185 119.7374 0002788  50.1078 310.0159 15.08833572 50477
2022-12-04 15:48:04.454496,50803,15.08845858,0.00027770,53.2180,115.8714,51.1777,308.9463,0.00001574,0.00011699000000,1 50803U 22001A   22338.65838489  .00001574  00000-0  11699-3 0  9996,2 50803  53.2180 115.8714 0002777  51.1777 308.9463 15.08845858 51871
2022-12-04 18:58:50.414592,50803,15.08851853,0.00027640,53.2182,115.2761,52.2207,307.9035,0.00001350,0.00010287000000,1 50803U 22001A   22338.79086128  .00001350  00000-0  10287-3 0  9990,2 50803  53.2182 115.2761 0002764  52.2207 307.9035 15.08851853 50623
2022-12-05 09:17:18.788064,50803,15.08844201,0.00027900,53.2177,112.6002,51.3255,308.7986,0.00001676,0.00012338000000,1 50803U 22001A   22339.38702301  .00001676  00000-0  12338-3 0  9994,2 50803  53.2177 112.6002 0002790  51.3255 308.7986 15.08844201 50711
